{
  "type": "FeatureCollection",
  "features": [
    {
      "type": "Feature",
      "properties": {
        "norad_id": 66961,
        "name": "STARLINK-35761",
        "group": "last-30-days",
        "lat": -24.03762522483105,
        "lon": 53.49900058056944,
        "alt_km": 391.588019866238,
        "timestamp": "2025-12-26T17:24:53.442576+00:00",
        "meta_object_name": "STARLINK-35761",
        "meta_object_id": "2025-288C",
        "meta_epoch": "2025-12-26T06:00:02.999808",
        "meta_mean_motion": 15.61207753,
        "meta_eccentricity": 9.717e-05,
        "meta_inclination": 43.0001,
        "meta_ra_of_asc_node": 84.9181,
        "meta_arg_of_pericenter": 273.6808,
        "meta_mean_anomaly": 255.2806,
        "meta_ephemeris_type": 0,
        "meta_classification_type": "U",
        "meta_norad_cat_id": 66961,
        "meta_element_set_no": 999,
        "meta_rev_at_epoch": 400,
        "meta_bstar": -0.025632561,
        "meta_mean_motion_dot": -0.01963692,
        "meta_mean_motion_ddot": 0,
        "tle_line1": "1 66961U 25288C   25360.25003472 -.01963692  00000+0 -25633-1 0  9999",
        "tle_line2": "2 66961  43.0001  84.9181 0000971 273.6808 255.2806 15.61207753  4009"
      },
      "geometry": {
        "type": "Point",
        "coordinates": [
          53.49900058056944,
          -24.03762522483105
        ]
      }
    },
    {
      "type": "Feature",
      "properties": {
        "norad_id": 66962,
        "name": "STARLINK-35874",
        "group": "last-30-days",
        "lat": -22.88221793628207,
        "lon": 55.159074970059386,
        "alt_km": 391.5809677059342,
        "timestamp": "2025-12-26T17:24:53.442586+00:00",
        "meta_object_name": "STARLINK-35874",
        "meta_object_id": "2025-288D",
        "meta_epoch": "2025-12-26T06:00:02.999808",
        "meta_mean_motion": 15.61212215,
        "meta_eccentricity": 0.00010219,
        "meta_inclination": 43.0001,
        "meta_ra_of_asc_node": 84.9129,
        "meta_arg_of_pericenter": 276.2488,
        "meta_mean_anomaly": 254.6251,
        "meta_ephemeris_type": 0,
        "meta_classification_type": "U",
        "meta_norad_cat_id": 66962,
        "meta_element_set_no": 999,
        "meta_rev_at_epoch": 400,
        "meta_bstar": -0.025708331,
        "meta_mean_motion_dot": -0.01969127,
        "meta_mean_motion_ddot": 0,
        "tle_line1": "1 66962U 25288D   25360.25003472 -.01969127  00000+0 -25708-1 0  9992",
        "tle_line2": "2 66962  43.0001  84.9129 0001021 276.2488 254.6251 15.61212215  4008"
      },
      "geometry": {
        "type": "Point",
        "coordinates": [
          55.159074970059386,
          -22.88221793628207
        ]
      }
    },
    {
      "type": "Feature",
      "properties": {
        "norad_id": 66963,
        "name": "STARLINK-36133",
        "group": "last-30-days",
        "lat": -21.70893768990397,
        "lon": 56.792479032740424,
        "alt_km": 391.4964186878151,
        "timestamp": "2025-12-26T17:24:53.442598+00:00",
        "meta_object_name": "STARLINK-36133",
        "meta_object_id": "2025-288E",
        "meta_epoch": "2025-12-26T06:00:02.999808",
        "meta_mean_motion": 15.61210018,
        "meta_eccentricity": 0.00010653,
        "meta_inclination": 43.0001,
        "meta_ra_of_asc_node": 84.9082,
        "meta_arg_of_pericenter": 274.9477,
        "meta_mean_anomaly": 257.8427,
        "meta_ephemeris_type": 0,
        "meta_classification_type": "U",
        "meta_norad_cat_id": 66963,
        "meta_element_set_no": 999,
        "meta_rev_at_epoch": 400,
        "meta_bstar": -0.025643062,
        "meta_mean_motion_dot": -0.01964616,
        "meta_mean_motion_ddot": 0,
        "tle_line1": "1 66963U 25288E   25360.25003472 -.01964616  00000+0 -25643-1 0  9999",
        "tle_line2": "2 66963  43.0001  84.9082 0001065 274.9477 257.8427 15.61210018  4007"
      },
      "geometry": {
        "type": "Point",
        "coordinates": [
          56.792479032740424,
          -21.70893768990397
        ]
      }
    },
    {
      "type": "Feature",
      "properties": {
        "norad_id": 66964,
        "name": "STARLINK-36104",
        "group": "last-30-days",
        "lat": -20.520809345602004,
        "lon": 58.397495054942176,
        "alt_km": 391.38097539840965,
        "timestamp": "2025-12-26T17:24:53.442608+00:00",
        "meta_object_name": "STARLINK-36104",
        "meta_object_id": "2025-288F",
        "meta_epoch": "2025-12-26T06:00:02.999808",
        "meta_mean_motion": 15.6121059,
        "meta_eccentricity": 0.00010594,
        "meta_inclination": 43.0001,
        "meta_ra_of_asc_node": 84.9031,
        "meta_arg_of_pericenter": 277.3502,
        "meta_mean_anomaly": 257.3555,
        "meta_ephemeris_type": 0,
        "meta_classification_type": "U",
        "meta_norad_cat_id": 66964,
        "meta_element_set_no": 999,
        "meta_rev_at_epoch": 400,
        "meta_bstar": -0.025634589,
        "meta_mean_motion_dot": -0.0196408,
        "meta_mean_motion_ddot": 0,
        "tle_line1": "1 66964U 25288F   25360.25003472 -.01964080  00000+0 -25635-1 0  9996",
        "tle_line2": "2 66964  43.0001  84.9031 0001059 277.3502 257.3555 15.61210590  4003"
      },
      "geometry": {
        "type": "Point",
        "coordinates": [
          58.397495054942176,
          -20.520809345602004
        ]
      }
    },
    {
      "type": "Feature",
      "properties": {
        "norad_id": 66965,
        "name": "STARLINK-36067",
        "group": "last-30-days",
        "lat": -19.31699540179366,
        "lon": 59.97976222668335,
        "alt_km": 391.3111826474478,
        "timestamp": "2025-12-26T17:24:53.442620+00:00",
        "meta_object_name": "STARLINK-36067",
        "meta_object_id": "2025-288G",
        "meta_epoch": "2025-12-26T06:00:02.999808",
        "meta_mean_motion": 15.61208189,
        "meta_eccentricity": 8.891e-05,
        "meta_inclination": 43,
        "meta_ra_of_asc_node": 84.8989,
        "meta_arg_of_pericenter": 275.5083,
        "meta_mean_anomaly": 261.1206,
        "meta_ephemeris_type": 0,
        "meta_classification_type": "U",
        "meta_norad_cat_id": 66965,
        "meta_element_set_no": 999,
        "meta_rev_at_epoch": 400,
        "meta_bstar": -0.025621137,
        "meta_mean_motion_dot": -0.01962897,
        "meta_mean_motion_ddot": 0,
        "tle_line1": "1 66965U 25288G   25360.25003472 -.01962897  00000+0 -25621-1 0  9996",
        "tle_line2": "2 66965  43.0000  84.8989 0000889 275.5083 261.1206 15.61208189  4005"
      },
      "geometry": {
        "type": "Point",
        "coordinates": [
          59.97976222668335,
          -19.31699540179366
        ]
      }
    },
    {
      "type": "Feature",
      "properties": {
        "norad_id": 66966,
        "name": "STARLINK-36139",
        "group": "last-30-days",
        "lat": -18.10060017418363,
        "lon": 61.536884945092076,
        "alt_km": 391.1930402001253,
        "timestamp": "2025-12-26T17:24:53.442630+00:00",
        "meta_object_name": "STARLINK-36139",
        "meta_object_id": "2025-288H",
        "meta_epoch": "2025-12-26T06:00:02.999808",
        "meta_mean_motion": 15.61207288,
        "meta_eccentricity": 0.00010235,
        "meta_inclination": 43.0001,
        "meta_ra_of_asc_node": 84.8939,
        "meta_arg_of_pericenter": 279.7642,
        "meta_mean_anomaly": 258.7794,
        "meta_ephemeris_type": 0,
        "meta_classification_type": "U",
        "meta_norad_cat_id": 66966,
        "meta_element_set_no": 999,
        "meta_rev_at_epoch": 400,
        "meta_bstar": -0.02559876,
        "meta_mean_motion_dot": -0.0196142,
        "meta_mean_motion_ddot": 0,
        "tle_line1": "1 66966U 25288H   25360.25003472 -.01961420  00000+0 -25599-1 0  9992",
        "tle_line2": "2 66966  43.0001  84.8939 0001023 279.7642 258.7794 15.61207288  4003"
      },
      "geometry": {
        "type": "Point",
        "coordinates": [
          61.536884945092076,
          -18.10060017418363
        ]
      }
    },
    {
      "type": "Feature",
      "properties": {
        "norad_id": 66967,
        "name": "STARLINK-36136",
        "group": "last-30-days",
        "lat": -16.87012597482415,
        "lon": 63.07470059618727,
        "alt_km": 391.149879960848,
        "timestamp": "2025-12-26T17:24:53.442640+00:00",
        "meta_object_name": "STARLINK-36136",
        "meta_object_id": "2025-288J",
        "meta_epoch": "2025-12-26T06:00:02.999808",
        "meta_mean_motion": 15.61209795,
        "meta_eccentricity": 9.441e-05,
        "meta_inclination": 43.0003,
        "meta_ra_of_asc_node": 84.8891,
        "meta_arg_of_pericenter": 273.3996,
        "meta_mean_anomaly": 267.0599,
        "meta_ephemeris_type": 0,
        "meta_classification_type": "U",
        "meta_norad_cat_id": 66967,
        "meta_element_set_no": 999,
        "meta_rev_at_epoch": 400,
        "meta_bstar": -0.02560909,
        "meta_mean_motion_dot": -0.0196223,
        "meta_mean_motion_ddot": 0,
        "tle_line1": "1 66967U 25288J   25360.25003472 -.01962230  00000+0 -25609-1 0  9995",
        "tle_line2": "2 66967  43.0003  84.8891 0000944 273.3996 267.0599 15.61209795  4007"
      },
      "geometry": {
        "type": "Point",
        "coordinates": [
          63.07470059618727,
          -16.87012597482415
        ]
      }
    }
  ]
}